ONEWEB-0199             
1 48234U 21031AA  25365.87845181  .00000227  00000+0  57701-3 0  9994
2 48234  87.9009 323.0268 0001860  78.1337 282.0001 13.14501673226288
ONEWEB-0203             
1 48235U 21031AB  25365.86893070  .00000159  00000+0  39330-3 0  9996
2 48235  87.9007 323.0287 0001653  71.6561 288.4749 13.14501810226298
ONEWEB-0197             
1 48236U 21031AC  25365.91953130 -.00000178  00000+0 -51380-3 0  9999
2 48236  87.9008 323.0176 0001939  89.1698 270.9654 13.14502053226212
ONEWEB-0194             
1 48237U 21031AD  25365.89905436  .00000011  00000+0 -39933-5 0  9990
2 48237  87.9010 323.0390 0001894  73.9437 286.1901 13.14501295226385
ONEWEB-0193             
1 48238U 21031AE  25365.91491279 -.00000127  00000+0 -37649-3 0  9998
2 48238  87.9008 323.0298 0002091  72.0451 288.0906 13.14501847226330
ONEWEB-0191             
1 48239U 21031AF  25365.92602371 -.00000192  00000+0 -55194-3 0  9994
2 48239  87.9013 323.0191 0001825  81.6152 278.5185 13.14503702226196
ONEWEB-0195             
1 48240U 21031AG  25365.90302406 -.00000106  00000+0 -32101-3 0  9998
2 48240  87.9018 323.0214 0001357  76.8888 283.2393 13.14503043226171
ONEWEB-0201             
1 48241U 21031AH  25365.89127968  .00000082  00000+0  18562-3 0  9991
2 48241  87.9001 323.0587 0001643  91.1428 268.9890 13.14503465226401
